NORAD_CAT_ID,OBJECT_NAME,OBJECT_TYPE,EPOCH,MEAN_MOTION,ECCENTRICITY,INCLINATION,RA_OF_ASC_NODE,ARG_OF_PERICENTER,MEAN_ANOMALY,BSTAR,MEAN_MOTION_DOT,MEAN_MOTION_DDOT,TLE_LINE0,TLE_LINE1,TLE_LINE2,SEMIMAJOR_AXIS,PERIOD,APOGEE,PERIGEE,DECAYED
51898.0,STARLINK-3597,PAYLOAD,2023-04-22 05:41:36,15.08848536,0.0001351,53.2175,43.76,80.8596,279.2549,8.0867e-05,1e-05,0.0,0 STARLINK-3597,1 51898U 22022AY  23112.23722794  .00001000  00000-0  80867-4 0  9998,2 51898  53.2175  43.7600 0001351  80.8596 279.2549 15.08848536 64413,6917.854,95.437,540.654,538.785,0.0
51898.0,STARLINK-3597,PAYLOAD,2023-04-23 05:32:23,15.08842527,0.0001021,53.2181,39.2994,105.0746,255.0359,0.00012088,1.637e-05,0.0,0 STARLINK-3597,1 51898U 22022AY  23113.23083044  .00001637  00000-0  12088-3 0  9992,2 51898  53.2181  39.2994 0001021 105.0746 255.0359 15.08842527 64568,6917.873,95.437,540.444,539.031,0.0
51898.0,STARLINK-3597,PAYLOAD,2023-04-24 03:47:46,15.08858274,0.0001293,53.2192,35.1355,106.3971,253.7164,4.4813e-05,4.26e-06,0.0,0 STARLINK-3597,1 51898U 22022AY  23114.15818153  .00000426  00000-0  44813-4 0  9998,2 51898  53.2192  35.1355 0001293 106.3971 253.7164 15.08858274 64702,6917.825,95.436,540.584,538.795,0.0
51898.0,STARLINK-3597,PAYLOAD,2023-04-25 02:03:08,15.08878798,0.0001334,53.2186,30.9727,83.1665,276.9479,0.00038153,5.796e-05,0.0,0 STARLINK-3597,1 51898U 22022AY  23115.08551817  .00005796  00000-0  38153-3 0  9996,2 51898  53.2186  30.9727 0001334  83.1665 276.9479 15.08878798 64843,6917.762,95.435,540.55,538.704,0.0
51898.0,STARLINK-3597,PAYLOAD,2023-04-26 05:04:44,15.08826203,0.0001416,53.2174,25.9181,92.463,267.6524,-0.00033272,-5.577e-05,0.0,0 STARLINK-3597,1 51898U 22022AY  23116.21163071 -.00005577  00000-0 -33272-3 0  9999,2 51898  53.2174  25.9181 0001416  92.4630 267.6524 15.08826203 65016,6917.923,95.438,540.767,538.808,0.0
51898.0,STARLINK-3597,PAYLOAD,2023-04-26 17:47:49,15.08835464,0.0001464,53.217,23.5388,104.8814,255.234,-0.00039783,-6.613e-05,0.0,0 STARLINK-3597,1 51898U 22022AY  23116.74154952 -.00006613  00000-0 -39783-3 0  9990,2 51898  53.2170  23.5388 0001464 104.8814 255.2340 15.08835464 65096,6917.894,95.438,540.772,538.746,0.0
51898.0,STARLINK-3597,PAYLOAD,2023-04-27 03:20:08,15.0884146,0.0001524,53.2168,21.7561,104.196,255.9202,0.00031591,4.743e-05,0.0,0 STARLINK-3597,1 51898U 22022AY  23117.13899299  .00004743  00000-0  31591-3 0  9993,2 51898  53.2168  21.7561 0001524 104.1960 255.9202 15.08841460 65152,6917.876,95.437,540.795,538.687,0.0
51898.0,STARLINK-3597,PAYLOAD,2023-04-27 20:49:24,15.08843261,0.0001578,53.2167,18.4842,101.3011,258.8159,0.00054235,8.355e-05,0.0,0 STARLINK-3597,1 51898U 22022AY  23117.86763971  .00008355  00000-0  54235-3 0  9993,2 51898  53.2167  18.4842 0001578 101.3011 258.8159 15.08843261 65267,6917.87,95.437,540.827,538.644,0.0
51898.0,STARLINK-3597,PAYLOAD,2023-04-28 03:10:56,15.08852069,0.0001754,53.2171,17.2956,100.1689,259.9501,0.00073139,0.00011375,0.0,0 STARLINK-3597,1 51898U 22022AY  23118.13259715  .00011375  00000-0  73139-3 0  9990,2 51898  53.2171  17.2956 0001754 100.1689 259.9501 15.08852069 65303,6917.843,95.437,540.922,538.495,0.0
51898.0,STARLINK-3597,PAYLOAD,2023-04-29 03:01:43,15.08847007,0.0001273,53.2178,12.8352,95.5555,264.5582,0.00023249,3.415e-05,0.0,0 STARLINK-3597,1 51898U 22022AY  23119.12619697  .00003415  00000-0  23249-3 0  9992,2 51898  53.2178  12.8352 0001273  95.5555 264.5582 15.08847007 65459,6917.859,95.437,540.605,538.843,0.0
51898.0,STARLINK-3597,PAYLOAD,2023-04-29 17:20:11,15.0883888,0.0001298,53.2181,10.1585,89.4918,270.6223,0.00014248,1.98e-05,0.0,0 STARLINK-3597,1 51898U 22022AY  23119.72236033  .00001980  00000-0  14248-3 0  9991,2 51898  53.2181  10.1585 0001298  89.4918 270.6223 15.08838880 65543,6917.884,95.438,540.647,538.851,0.0
51898.0,STARLINK-3597,PAYLOAD,2023-04-29 20:30:58,15.08841947,0.0001296,53.2183,9.5641,88.5558,271.5583,0.00011344,1.518e-05,0.0,0 STARLINK-3597,1 51898U 22022AY  23119.85483952  .00001518  00000-0  11344-3 0  9990,2 51898  53.2183   9.5641 0001296  88.5558 271.5583 15.08841947 65567,6917.874,95.437,540.636,538.843,0.0
51898.0,STARLINK-3597,PAYLOAD,2023-04-30 20:21:45,15.08841043,0.0001242,53.2179,5.1045,86.2949,273.8185,0.0001007,1.315e-05,0.0,0 STARLINK-3597,1 51898U 22022AY  23120.84844130  .00001315  00000-0  10070-3 0  9990,2 51898  53.2179   5.1045 0001242  86.2949 273.8185 15.08841043 65719,6917.877,95.437,540.601,538.883,0.0
51898.0,STARLINK-3597,PAYLOAD,2023-05-01 02:43:17,15.08845846,0.0001177,53.2178,3.9148,89.9178,270.1949,0.00018939,2.728e-05,0.0,0 STARLINK-3597,1 51898U 22022AY  23121.11339934  .00002728  00000-0  18939-3 0  9993,2 51898  53.2178   3.9148 0001177  89.9178 270.1949 15.08845846 65756,6917.863,95.437,540.542,538.913,0.0
51898.0,STARLINK-3597,PAYLOAD,2023-05-01 21:47:55,15.08835541,0.0001354,53.2179,0.343,85.999,274.1156,0.00031061,4.658e-05,0.0,0 STARLINK-3597,1 51898U 22022AY  23121.90828481  .00004658  00000-0  31061-3 0  9995,2 51898  53.2179   0.3430 0001354  85.9990 274.1156 15.08835541 65875,6917.894,95.438,540.696,538.822,0.0
51898.0,STARLINK-3597,PAYLOAD,2023-05-02 00:58:41,15.08847719,0.0001206,53.218,359.7532,81.7913,278.3215,0.00019385,2.799e-05,0.0,0 STARLINK-3597,1 51898U 22022AY  23122.04075916  .00002799  00000-0  19385-3 0  9997,2 51898  53.2180 359.7532 0001206  81.7913 278.3215 15.08847719 65890,6917.857,95.437,540.556,538.888,0.0
51898.0,STARLINK-3597,PAYLOAD,2023-05-02 18:27:56,15.0883866,0.0001349,53.2171,356.4847,101.6275,258.4868,0.00013521,1.865e-05,0.0,0 STARLINK-3597,1 51898U 22022AY  23122.76940352  .00001865  00000-0  13521-3 0  9990,2 51898  53.2171 356.4847 0001349 101.6275 258.4868 15.08838660 66006,6917.884,95.438,540.683,538.816,0.0
51898.0,STARLINK-3597,PAYLOAD,2023-05-02 21:38:42,15.0884159,0.0001221,53.2175,355.8888,88.845,271.2682,8.7968e-05,1.112e-05,0.0,0 STARLINK-3597,1 51898U 22022AY  23122.90188264  .00001112  00000-0  87968-4 0  9994,2 51898  53.2175 355.8888 0001221  88.8450 271.2682 15.08841590 66023,6917.876,95.437,540.585,538.896,0.0
51898.0,STARLINK-3597,PAYLOAD,2023-05-03 08:46:24,15.08842299,0.0001144,53.2173,353.8056,82.0136,278.0986,5.8818e-05,6.48e-06,0.0,0 STARLINK-3597,1 51898U 22022AY  23123.36556191  .00000648  00000-0  58818-4 0  9998,2 51898  53.2173 353.8056 0001144  82.0136 278.0986 15.08842299 66093,6917.873,95.437,540.53,538.947,0.0
51898.0,STARLINK-3597,PAYLOAD,2023-05-03 19:54:06,15.08842829,0.0001126,53.2168,351.7237,87.5115,272.6006,6.6783e-05,7.75e-06,0.0,0 STARLINK-3597,1 51898U 22022AY  23123.82924239  .00000775  00000-0  66783-4 0  9992,2 51898  53.2168 351.7237 0001126  87.5115 272.6006 15.08842829 66162,6917.872,95.437,540.516,538.958,0.0
51898.0,STARLINK-3597,PAYLOAD,2023-05-03 21:29:29,15.08843357,0.0001131,53.2168,351.4271,95.4001,264.712,7.2085e-05,8.6e-06,0.0,0 STARLINK-3597,1 51898U 22022AY  23123.89548194  .00000860  00000-0  72085-4 0  9998,2 51898  53.2168 351.4271 0001131  95.4001 264.7120 15.08843357 66172,6917.87,95.437,540.518,538.953,0.0
51898.0,STARLINK-3597,PAYLOAD,2023-05-04 08:37:11,15.08847795,0.0001127,53.2168,349.3454,85.7121,274.4,0.00012909,1.768e-05,0.0,0 STARLINK-3597,1 51898U 22022AY  23124.35915928  .00001768  00000-0  12909-3 0  9999,2 51898  53.2168 349.3454 0001127  85.7121 274.4000 15.08847795 66244,6917.857,95.437,540.501,538.942,0.0
51898.0,STARLINK-3597,PAYLOAD,2023-05-04 21:20:16,15.08848349,0.0001133,53.2173,346.9646,95.8838,264.2284,0.00012116,1.641e-05,0.0,0 STARLINK-3597,1 51898U 22022AY  23124.88907814  .00001641  00000-0  12116-3 0  9992,2 51898  53.2173 346.9646 0001133  95.8838 264.2284 15.08848349 66326,6917.855,95.437,540.504,538.936,0.0
51898.0,STARLINK-3597,PAYLOAD,2023-05-05 21:11:03,15.08838433,0.0001139,53.217,342.5037,91.5879,268.5243,3.8745e-05,3.29e-06,0.0,0 STARLINK-3597,1 51898U 22022AY  23125.88268495  .00000329  00000-0  38745-4 0  9997,2 51898  53.2170 342.5037 0001139  91.5879 268.5243 15.08838433 66474,6917.885,95.438,540.538,538.962,0.0
51898.0,STARLINK-3597,PAYLOAD,2023-05-06 01:57:13,15.0884298,0.0001174,53.2171,341.6127,91.0707,269.0419,0.00012155,1.647e-05,0.0,0 STARLINK-3597,1 51898U 22022AY  23126.08140370  .00001647  00000-0  12155-3 0  9991,2 51898  53.2171 341.6127 0001174  91.0707 269.0419 15.08842980 66506,6917.871,95.437,540.548,538.924,0.0
51898.0,STARLINK-3597,PAYLOAD,2023-05-07 00:12:36,15.08855144,0.000108,53.2159,337.4495,85.0795,275.0321,0.0003571,5.402e-05,0.0,0 STARLINK-3597,1 51898U 22022AY  23127.00875792  .00005402  00000-0  35710-3 0  9992,2 51898  53.2159 337.4495 0001080  85.0795 275.0321 15.08855144 66649,6917.834,95.437,540.446,538.952,0.0
51898.0,STARLINK-3597,PAYLOAD,2023-05-07 20:52:38,15.08839542,0.0001065,53.2162,333.584,96.3885,263.7228,0.00016712,2.373e-05,0.0,0 STARLINK-3597,1 51898U 22022AY  23127.86988661  .00002373  00000-0  16712-3 0  9991,2 51898  53.2162 333.5840 0001065  96.3885 263.7228 15.08839542 66770,6917.882,95.438,540.484,539.01,0.0
51898.0,STARLINK-3597,PAYLOAD,2023-05-08 20:43:25,15.08849287,0.0001065,53.2161,329.1232,94.9847,265.1267,0.00065214,0.00010109,0.0,0 STARLINK-3597,1 51898U 22022AY  23128.86348837  .00010109  00000-0  65214-3 0  9994,2 51898  53.2161 329.1232 0001065  94.9847 265.1267 15.08849287 66920,6917.852,95.437,540.454,538.98,0.0
51898.0,STARLINK-3597,PAYLOAD,2023-05-09 01:29:34,15.08858603,0.0001078,53.2159,328.231,97.589,262.5225,0.00088591,0.00013847,0.0,0 STARLINK-3597,1 51898U 22022AY  23129.06220543  .00013847  00000-0  88591-3 0  9995,2 51898  53.2159 328.2310 0001078  97.5890 262.5225 15.08858603 66955,6917.824,95.436,540.434,538.943,0.0
51898.0,STARLINK-3597,PAYLOAD,2023-05-10 06:06:30,15.08837445,6.49e-05,53.2161,322.8785,113.3841,246.722,-8.2985e-05,-1.608e-05,0.0,0 STARLINK-3597,1 51898U 22022AY  23130.25452442 -.00001608  00000-0 -82985-4 0  9999,2 51898  53.2161 322.8785 0000649 113.3841 246.7220 15.08837445 67131,6917.888,95.438,540.202,539.304,0.0
